{
  "type": "FeatureCollection",
  "features": [
    {
      "type": "Feature",
      "properties": {
        "norad_id": 66851,
        "name": "STARLINK-36094",
        "group": "last-30-days",
        "lat": -42.178231258633694,
        "lon": 48.48818401388439,
        "alt_km": 297.18165019662956,
        "timestamp": "2025-12-12T07:43:19.259973+00:00",
        "meta_object_name": "STARLINK-36094",
        "meta_object_id": "2025-281D",
        "meta_epoch": "2025-12-10T16:00:01.999584",
        "meta_mean_motion": 15.95416525,
        "meta_eccentricity": 0.00016672,
        "meta_inclination": 43.0013,
        "meta_ra_of_asc_node": 135.2954,
        "meta_arg_of_pericenter": 281.4235,
        "meta_mean_anomaly": 210.094,
        "meta_ephemeris_type": 0,
        "meta_classification_type": "U",
        "meta_norad_cat_id": 66851,
        "meta_element_set_no": 999,
        "meta_rev_at_epoch": 246,
        "meta_bstar": -0.0023762503,
        "meta_mean_motion_dot": -0.00981359,
        "meta_mean_motion_ddot": 0.00030208182,
        "tle_line1": "1 66851U 25281D   25344.66668981 -.00981359  30208-3 -23763-2 0  9998",
        "tle_line2": "2 66851  43.0013 135.2954 0001667 281.4235 210.0940 15.95416525  2464"
      },
      "geometry": {
        "type": "Point",
        "coordinates": [
          48.48818401388439,
          -42.178231258633694
        ]
      }
    },
    {
      "type": "Feature",
      "properties": {
        "norad_id": 66852,
        "name": "STARLINK-35992",
        "group": "last-30-days",
        "lat": -41.80545764431456,
        "lon": 51.29648682137532,
        "alt_km": 297.0467318955489,
        "timestamp": "2025-12-12T07:43:19.259984+00:00",
        "meta_object_name": "STARLINK-35992",
        "meta_object_id": "2025-281E",
        "meta_epoch": "2025-12-10T16:00:01.999584",
        "meta_mean_motion": 15.95490858,
        "meta_eccentricity": 0.00016244,
        "meta_inclination": 43.0015,
        "meta_ra_of_asc_node": 135.2908,
        "meta_arg_of_pericenter": 275.4518,
        "meta_mean_anomaly": 217.8803,
        "meta_ephemeris_type": 0,
        "meta_classification_type": "U",
        "meta_norad_cat_id": 66852,
        "meta_element_set_no": 999,
        "meta_rev_at_epoch": 246,
        "meta_bstar": -0.0024039217,
        "meta_mean_motion_dot": -0.00996651,
        "meta_mean_motion_ddot": 0.00031095622,
        "tle_line1": "1 66852U 25281E   25344.66668981 -.00996651  31096-3 -24039-2 0  9993",
        "tle_line2": "2 66852  43.0015 135.2908 0001624 275.4518 217.8803 15.95490858  2460"
      },
      "geometry": {
        "type": "Point",
        "coordinates": [
          51.29648682137532,
          -41.80545764431456
        ]
      }
    },
    {
      "type": "Feature",
      "properties": {
        "norad_id": 66853,
        "name": "STARLINK-35986",
        "group": "last-30-days",
        "lat": -41.169932068271116,
        "lon": 55.16670666677024,
        "alt_km": 296.9813186566098,
        "timestamp": "2025-12-12T07:43:19.259994+00:00",
        "meta_object_name": "STARLINK-35986",
        "meta_object_id": "2025-281F",
        "meta_epoch": "2025-12-10T16:00:01.999584",
        "meta_mean_motion": 15.95608593,
        "meta_eccentricity": 0.00016358,
        "meta_inclination": 43.0015,
        "meta_ra_of_asc_node": 135.2841,
        "meta_arg_of_pericenter": 275.5982,
        "meta_mean_anomaly": 220.3793,
        "meta_ephemeris_type": 0,
        "meta_classification_type": "U",
        "meta_norad_cat_id": 66853,
        "meta_element_set_no": 999,
        "meta_rev_at_epoch": 246,
        "meta_bstar": -0.0024896148,
        "meta_mean_motion_dot": -0.01038402,
        "meta_mean_motion_ddot": 0.00033553081,
        "tle_line1": "1 66853U 25281F   25344.66668981 -.01038402  33553-3 -24896-2 0  9997",
        "tle_line2": "2 66853  43.0015 135.2841 0001635 275.5982 220.3793 15.95608593  2469"
      },
      "geometry": {
        "type": "Point",
        "coordinates": [
          55.16670666677024,
          -41.169932068271116
        ]
      }
    },
    {
      "type": "Feature",
      "properties": {
        "norad_id": 66854,
        "name": "STARLINK-36087",
        "group": "last-30-days",
        "lat": -40.460763664210454,
        "lon": 58.70899541222983,
        "alt_km": 297.001194400701,
        "timestamp": "2025-12-12T07:43:19.260005+00:00",
        "meta_object_name": "STARLINK-36087",
        "meta_object_id": "2025-281G",
        "meta_epoch": "2025-12-10T16:00:01.999584",
        "meta_mean_motion": 15.95721326,
        "meta_eccentricity": 0.00016261,
        "meta_inclination": 43.0014,
        "meta_ra_of_asc_node": 135.2774,
        "meta_arg_of_pericenter": 269.4535,
        "meta_mean_anomaly": 229.0445,
        "meta_ephemeris_type": 0,
        "meta_classification_type": "U",
        "meta_norad_cat_id": 66854,
        "meta_element_set_no": 999,
        "meta_rev_at_epoch": 246,
        "meta_bstar": -0.0025875366,
        "meta_mean_motion_dot": -0.01085412,
        "meta_mean_motion_ddot": 0.0003641912,
        "tle_line1": "1 66854U 25281G   25344.66668981 -.01085412  36419-3 -25875-2 0  9993",
        "tle_line2": "2 66854  43.0014 135.2774 0001626 269.4535 229.0445 15.95721326  2460"
      },
      "geometry": {
        "type": "Point",
        "coordinates": [
          58.70899541222983,
          -40.460763664210454
        ]
      }
    },
    {
      "type": "Feature",
      "properties": {
        "norad_id": 66855,
        "name": "STARLINK-36090",
        "group": "last-30-days",
        "lat": -39.81529839947083,
        "lon": 61.49264993752969,
        "alt_km": 297.0231090702191,
        "timestamp": "2025-12-12T07:43:19.260015+00:00",
        "meta_object_name": "STARLINK-36090",
        "meta_object_id": "2025-281H",
        "meta_epoch": "2025-12-10T16:00:01.999584",
        "meta_mean_motion": 15.95808262,
        "meta_eccentricity": 0.00015962,
        "meta_inclination": 43.0015,
        "meta_ra_of_asc_node": 135.2723,
        "meta_arg_of_pericenter": 269.568,
        "meta_mean_anomaly": 230.9611,
        "meta_ephemeris_type": 0,
        "meta_classification_type": "U",
        "meta_norad_cat_id": 66855,
        "meta_element_set_no": 999,
        "meta_rev_at_epoch": 246,
        "meta_bstar": -0.0026621288,
        "meta_mean_motion_dot": -0.01121625,
        "meta_mean_motion_ddot": 0.00038702579,
        "tle_line1": "1 66855U 25281H   25344.66668981 -.01121625  38703-3 -26621-2 0  9999",
        "tle_line2": "2 66855  43.0015 135.2723 0001596 269.5680 230.9611 15.95808262  2465"
      },
      "geometry": {
        "type": "Point",
        "coordinates": [
          61.49264993752969,
          -39.81529839947083
        ]
      }
    },
    {
      "type": "Feature",
      "properties": {
        "norad_id": 66856,
        "name": "STARLINK-36072",
        "group": "last-30-days",
        "lat": -38.97885255143953,
        "lon": 64.67328290905785,
        "alt_km": 296.9215393419672,
        "timestamp": "2025-12-12T07:43:19.260025+00:00",
        "meta_object_name": "STARLINK-36072",
        "meta_object_id": "2025-281J",
        "meta_epoch": "2025-12-10T16:00:01.999584",
        "meta_mean_motion": 15.95902482,
        "meta_eccentricity": 0.00016438,
        "meta_inclination": 43.0014,
        "meta_ra_of_asc_node": 135.2663,
        "meta_arg_of_pericenter": 276.2049,
        "meta_mean_anomaly": 226.6934,
        "meta_ephemeris_type": 0,
        "meta_classification_type": "U",
        "meta_norad_cat_id": 66856,
        "meta_element_set_no": 999,
        "meta_rev_at_epoch": 246,
        "meta_bstar": -0.0027360976,
        "meta_mean_motion_dot": -0.0115835,
        "meta_mean_motion_ddot": 0.00041087948,
        "tle_line1": "1 66856U 25281J   25344.66668981 -.01158350  41088-3 -27361-2 0  9997",
        "tle_line2": "2 66856  43.0014 135.2663 0001643 276.2049 226.6934 15.95902482  2464"
      },
      "geometry": {
        "type": "Point",
        "coordinates": [
          64.67328290905785,
          -38.97885255143953
        ]
      }
    },
    {
      "type": "Feature",
      "properties": {
        "norad_id": 66857,
        "name": "STARLINK-36083",
        "group": "last-30-days",
        "lat": -38.2138874150685,
        "lon": 67.2748174425458,
        "alt_km": 296.8384726186532,
        "timestamp": "2025-12-12T07:43:19.260037+00:00",
        "meta_object_name": "STARLINK-36083",
        "meta_object_id": "2025-281K",
        "meta_epoch": "2025-12-10T16:00:01.999584",
        "meta_mean_motion": 15.95976314,
        "meta_eccentricity": 0.00016557,
        "meta_inclination": 43.0014,
        "meta_ra_of_asc_node": 135.2616,
        "meta_arg_of_pericenter": 277.0441,
        "meta_mean_anomaly": 227.797,
        "meta_ephemeris_type": 0,
        "meta_classification_type": "U",
        "meta_norad_cat_id": 66857,
        "meta_element_set_no": 999,
        "meta_rev_at_epoch": 246,
        "meta_bstar": -0.0027805964,
        "meta_mean_motion_dot": -0.01181694,
        "meta_mean_motion_ddot": 0.00042645657,
        "tle_line1": "1 66857U 25281K   25344.66668981 -.01181694  42646-3 -27806-2 0  9990",
        "tle_line2": "2 66857  43.0014 135.2616 0001655 277.0441 227.7970 15.95976314  2468"
      },
      "geometry": {
        "type": "Point",
        "coordinates": [
          67.2748174425458,
          -38.2138874150685
        ]
      }
    }
  ]
}